{"type": "FeatureCollection", "features": [ {"type": "Feature", "properties": {"norad_id": 30662, "name": "FENGYUN 1C DEB", "group": "fengyun-1c-debris", "lat": 57.55576332252762, "lon": 28.152212924737597, "alt_km": 831.7006683699892, "timestamp": "2025-12-12T09:49:09.009464+00:00", "meta": {"OBJECT_NAME": "FENGYUN 1C DEB", "OBJECT_ID": "1999-025APU", "EPOCH": "2025-12-12T02:56:28.210272", "MEAN_MOTION": 14.22352251, "ECCENTRICITY": 0.003309, "INCLINATION": 99.0536, "RA_OF_ASC_NODE": 42.3839, "ARG_OF_PERICENTER": 272.869, "MEAN_ANOMALY": 119.0688, "EPHEMERIS_TYPE": 0, "CLASSIFICATION_TYPE": "U", "NORAD_CAT_ID": 30662, "ELEMENT_SET_NO": 999, "REV_AT_EPOCH": 96630, "BSTAR": 0.0022667, "MEAN_MOTION_DOT": 5.026e-05, "MEAN_MOTION_DDOT": 0}, "tle": {"line1": "1 30662U 99025APU 25346.12254873  .00005026  00000+0  22667-2 0  9991", "line2": "2 30662  99.0536  42.3839 0033090 272.8690 119.0688 14.22352251966303"}}, "geometry": {"type": "Point", "coordinates": [28.152212924737597, 57.55576332252762]}}, {"type": "Feature", "properties": {"norad_id": 30663, "name": "FENGYUN 1C DEB", "group": "fengyun-1c-debris", "lat": 43.189548733356524, "lon": -105.45213229000366, "alt_km": 1166.716273129945, "timestamp": "2025-12-12T09:49:09.009475+00:00", "meta": {"OBJECT_NAME": "FENGYUN 1C DEB", "OBJECT_ID": "1999-025APV", "EPOCH": "2025-12-10T17:39:32.330304", "MEAN_MOTION": 13.23119607, "ECCENTRICITY": 0.06478185, "INCLINATION": 99.3025, "RA_OF_ASC_NODE": 261.8948, "ARG_OF_PERICENTER": 141.47, "MEAN_ANOMALY": 223.4554, "EPHEMERIS_TYPE": 0, "CLASSIFICATION_TYPE": "U", "NORAD_CAT_ID": 30663, "ELEMENT_SET_NO": 999, "REV_AT_EPOCH": 89021, "BSTAR": 0.0019128295, "MEAN_MOTION_DOT": 2.46e-05, "MEAN_MOTION_DDOT": 0}, "tle": {"line1": "1 30663U 99025APV 25344.73579086  .00002460  00000+0  19128-2 0  9990", "line2": "2 30663  99.3025 261.8948 0647818 141.4700 223.4554 13.23119607890215"}}, "geometry": {"type": "Point", "coordinates": [-105.45213229000366, 43.189548733356524]}}, {"type": "Feature", "properties": {"norad_id": 30665, "name": "FENGYUN 1C DEB", "group": "fengyun-1c-debris", "lat": 29.82128308362559, "lon": 143.33500903946816, "alt_km": 820.7571209392818, "timestamp": "2025-12-12T09:49:09.009486+00:00", "meta": {"OBJECT_NAME": "FENGYUN 1C DEB", "OBJECT_ID": "1999-025APX", "EPOCH": "2025-12-11T21:28:14.216736", "MEAN_MOTION": 14.12333378, "ECCENTRICITY": 0.0067675, "INCLINATION": 99.2082, "RA_OF_ASC_NODE": 317.4715, "ARG_OF_PERICENTER": 205.0006, "MEAN_ANOMALY": 210.6727, "EPHEMERIS_TYPE": 0, "CLASSIFICATION_TYPE": "U", "NORAD_CAT_ID": 30665, "ELEMENT_SET_NO": 999, "REV_AT_EPOCH": 95958, "BSTAR": 0.0022947, "MEAN_MOTION_DOT": 4.274e-05, "MEAN_MOTION_DDOT": 0}, "tle": {"line1": "1 30665U 99025APX 25345.89460899  .00004274  00000+0  22947-2 0  9999", "line2": "2 30665  99.2082 317.4715 0067675 205.0006 210.6727 14.12333378959580"}}, "geometry": {"type": "Point", "coordinates": [143.33500903946816, 29.82128308362559]}}, {"type": "Feature", "properties": {"norad_id": 30666, "name": "FENGYUN 1C DEB", "group": "fengyun-1c-debris", "lat": -27.528331224370763, "lon": -25.3206151313761, "alt_km": 934.702473587522, "timestamp": "2025-12-12T09:49:09.009496+00:00", "meta": {"OBJECT_NAME": "FENGYUN 1C DEB", "OBJECT_ID": "1999-025APY", "EPOCH": "2025-12-11T22:13:44.586336", "MEAN_MOTION": 14.02554569, "ECCENTRICITY": 0.0061132, "INCLINATION": 98.8223, "RA_OF_ASC_NODE": 329.5689, "ARG_OF_PERICENTER": 146.2405, "MEAN_ANOMALY": 269.0508, "EPHEMERIS_TYPE": 0, "CLASSIFICATION_TYPE": "U", "NORAD_CAT_ID": 30666, "ELEMENT_SET_NO": 999, "REV_AT_EPOCH": 96099, "BSTAR": 0.00028774, "MEAN_MOTION_DOT": 4.08e-06, "MEAN_MOTION_DDOT": 0}, "tle": {"line1": "1 30666U 99025APY 25345.92621049  .00000408  00000+0  28774-3 0  9990", "line2": "2 30666  98.8223 329.5689 0061132 146.2405 269.0508 14.02554569960996"}}, "geometry": {"type": "Point", "coordinates": [-25.3206151313761, -27.528331224370763]}}, {"type": "Feature", "properties": {"norad_id": 30668, "name": "FENGYUN 1C DEB", "group": "fengyun-1c-debris", "lat": -60.61320704535479, "lon": -137.13073528145853, "alt_km": 801.5877362112587, "timestamp": "2025-12-12T09:49:09.009506+00:00", "meta": {"OBJECT_NAME": "FENGYUN 1C DEB", "OBJECT_ID": "1999-025AQA", "EPOCH": "2025-12-11T16:24:51.939936", "MEAN_MOTION": 14.12317067, "ECCENTRICITY": 0.00790636, "INCLINATION": 99.1286, "RA_OF_ASC_NODE": 58.72, "ARG_OF_PERICENTER": 249.0273, "MEAN_ANOMALY": 267.8152, "EPHEMERIS_TYPE": 0, "CLASSIFICATION_TYPE": "U", "NORAD_CAT_ID": 30668, "ELEMENT_SET_NO": 999, "REV_AT_EPOCH": 96040, "BSTAR": 0.0027444387, "MEAN_MOTION_DOT": 5.161e-05, "MEAN_MOTION_DDOT": 0}, "tle": {"line1": "1 30668U 99025AQA 25345.68393449  .00005161  00000+0  27444-2 0  9998", "line2": "2 30668  99.1286  58.7200 0079063 249.0273 267.8152 14.12317067960406"}}, "geometry": {"type": "Point", "coordinates": [-137.13073528145853, -60.61320704535479]}}, {"type": "Feature", "properties": {"norad_id": 30669, "name": "FENGYUN 1C DEB", "group": "fengyun-1c-debris", "lat": -48.892136427201045, "lon": -66.87690301296759, "alt_km": 948.8226474129779, "timestamp": "2025-12-12T09:49:09.009517+00:00", "meta": {"OBJECT_NAME": "FENGYUN 1C DEB", "OBJECT_ID": "1999-025AQB", "EPOCH": "2025-12-11T08:59:00.508416", "MEAN_MOTION": 14.02717608, "ECCENTRICITY": 0.01176986, "INCLINATION": 98.6336, "RA_OF_ASC_NODE": 282.1147, "ARG_OF_PERICENTER": 180.4506, "MEAN_ANOMALY": 306.2574, "EPHEMERIS_TYPE": 0, "CLASSIFICATION_TYPE": "U", "NORAD_CAT_ID": 30669, "ELEMENT_SET_NO": 999, "REV_AT_EPOCH": 95434, "BSTAR": 0.0018104662, "MEAN_MOTION_DOT": 2.932e-05, "MEAN_MOTION_DDOT": 0}, "tle": {"line1": "1 30669U 99025AQB 25345.37431144  .00002932  00000+0  18105-2 0  9997", "line2": "2 30669  98.6336 282.1147 0117698 180.4506 306.2574 14.02717608954340"}}, "geometry": {"type": "Point", "coordinates": [-66.87690301296759, -48.892136427201045]}}, {"type": "Feature", "properties": {"norad_id": 30670, "name": "FENGYUN 1C DEB", "group": "fengyun-1c-debris", "lat": -37.3112353405832, "lon": -155.86411695699357, "alt_km": 870.036522718965, "timestamp": "2025-12-12T09:49:09.009528+00:00", "meta": {"OBJECT_NAME": "FENGYUN 1C DEB", "OBJECT_ID": "1999-025AQC", "EPOCH": "2025-12-12T02:09:00.969120", "MEAN_MOTION": 14.15816943, "ECCENTRICITY": 0.0039905, "INCLINATION": 98.7112, "RA_OF_ASC_NODE": 30.5336, "ARG_OF_PERICENTER": 71.4534, "MEAN_ANOMALY": 318.2732, "EPHEMERIS_TYPE": 0, "CLASSIFICATION_TYPE": "U", "NORAD_CAT_ID": 30670, "ELEMENT_SET_NO": 999, "REV_AT_EPOCH": 97143, "BSTAR": 0.00013518, "MEAN_MOTION_DOT": 2.25e-06, "MEAN_MOTION_DDOT": 0}, "tle": {"line1": "1 30670U 99025AQC 25346.08959455  .00000225  00000+0  13518-3 0  9995", "line2": "2 30670  98.7112  30.5336 0039905  71.4534 318.2732 14.15816943971438"}}, "geometry": {"type": "Point", "coordinates": [-155.86411695699357, -37.3112353405832]}}, {"type": "Feature", "properties": {"norad_id": 30671, "name": "FENGYUN 1C DEB", "group": "fengyun-1c-debris", "lat": -25.155166917552776, "lon": -133.27205184630213, "alt_km": 1005.8361751232806, "timestamp": "2025-12-12T09:49:09.009539+00:00", "meta": {"OBJECT_NAME": "FENGYUN 1C DEB", "OBJECT_ID": "1999-025AQD", "EPOCH": "2025-12-11T21:04:31.237248", "MEAN_MOTION": 13.95456096, "ECCENTRICITY": 0.012606, "INCLINATION": 99.2527, "RA_OF_ASC_NODE": 50.5854, "ARG_OF_PERICENTER": 35.6592, "MEAN_ANOMALY": 23.4447, "EPHEMERIS_TYPE": 0, "CLASSIFICATION_TYPE": "U", "NORAD_CAT_ID": 30671, "ELEMENT_SET_NO": 999, "REV_AT_EPOCH": 95183, "BSTAR": 0.001632, "MEAN_MOTION_DOT": 2.322e-05, "MEAN_MOTION_DDOT": 0}, "tle": {"line1": "1 30671U 99025AQD 25345.87813932  .00002322  00000+0  16320-2 0  9994", "line2": "2 30671  99.2527  50.5854 0126060  35.6592  23.4447 13.95456096951833"}}, "geometry": {"type": "Point", "coordinates": [-133.27205184630213, -25.155166917552776]}}, {"type": "Feature", "properties": {"norad_id": 30673, "name": "FENGYUN 1C DEB", "group": "fengyun-1c-debris", "lat": 13.574955615651819, "lon": 33.40321195875498, "alt_km": 907.0875733907214, "timestamp": "2025-12-12T09:49:09.009549+00:00", "meta": {"OBJECT_NAME": "FENGYUN 1C DEB", "OBJECT_ID": "1999-025AQF", "EPOCH": "2025-12-12T00:03:17.441280", "MEAN_MOTION": 14.03456369, "ECCENTRICITY": 0.0052621, "INCLINATION": 98.9205, "RA_OF_ASC_NODE": 35.1777, "ARG_OF_PERICENTER": 144.6623, "MEAN_ANOMALY": 335.2205, "EPHEMERIS_TYPE": 0, "CLASSIFICATION_TYPE": "U", "NORAD_CAT_ID": 30673, "ELEMENT_SET_NO": 999, "REV_AT_EPOCH": 96521, "BSTAR": 0.00016472, "MEAN_MOTION_DOT": 2.18e-06, "MEAN_MOTION_DDOT": 0}, "tle": {"line1": "1 30673U 99025AQF 25346.00228520  .00000218  00000+0  16472-3 0  9996", "line2": "2 30673  98.9205  35.1777 0052621 144.6623 335.2205 14.03456369965210"}}, "geometry": {"type": "Point", "coordinates": [33.40321195875498, 13.574955615651819]}}, {"type": "Feature", "properties": {"norad_id": 30674, "name": "FENGYUN 1C DEB", "group": "fengyun-1c-debris", "lat": -50.2853451649356, "lon": -41.75214473791579, "alt_km": 581.7866195858178, "timestamp": "2025-12-12T09:49:09.009559+00:00", "meta": {"OBJECT_NAME": "FENGYUN 1C DEB", "OBJECT_ID": "1999-025AQG", "EPOCH": "2025-12-11T23:09:08.231040", "MEAN_MOTION": 14.95484756, "ECCENTRICITY": 0.0025582, "INCLINATION": 98.9398, "RA_OF_ASC_NODE": 148.6655, "ARG_OF_PERICENTER": 303.9507, "MEAN_ANOMALY": 55.9279, "EPHEMERIS_TYPE": 0, "CLASSIFICATION_TYPE": "U", "NORAD_CAT_ID": 30674, "ELEMENT_SET_NO": 999, "REV_AT_EPOCH": 97340, "BSTAR": 0.0087876, "MEAN_MOTION_DOT": 0.00099173, "MEAN_MOTION_DDOT": 0}, "tle": {"line1": "1 30674U 99025AQG 25345.96467860  .00099173  00000+0  87876-2 0  9996", "line2": "2 30674  98.9398 148.6655 0025582 303.9507  55.9279 14.95484756973405"}}, "geometry": {"type": "Point", "coordinates": [-41.75214473791579, -50.2853451649356]}}]}